[{"OBJECT_NAME":"STARLINK-5087","OBJECT_ID":"2022-177AG","EPOCH":"2026-03-09T22:00:01.999584","MEAN_MOTION":15.1141604,"ECCENTRICITY":0.00013703,"INCLINATION":43.0008,"RA_OF_ASC_NODE":119.1582,"ARG_OF_PERICENTER":266.6734,"MEAN_ANOMALY":273.7551,"EPHEMERIS_TYPE":0,"CLASSIFICATION_TYPE":"U","NORAD_CAT_ID":54850,"ELEMENT_SET_NO":999,"REV_AT_EPOCH":573,"BSTAR":0.046432606,"MEAN_MOTION_DOT":0.00859826,"MEAN_MOTION_DDOT":0},{"OBJECT_NAME":"HORUS 1","OBJECT_ID":"2023-025A","EPOCH":"2026-03-09T23:16:57.631008","MEAN_MOTION":15.23575294,"ECCENTRICITY":0.00030668,"INCLINATION":97.3529,"RA_OF_ASC_NODE":145.6167,"ARG_OF_PERICENTER":124.3269,"MEAN_ANOMALY":235.8259,"EPHEMERIS_TYPE":0,"CLASSIFICATION_TYPE":"U","NORAD_CAT_ID":55690,"ELEMENT_SET_NO":999,"REV_AT_EPOCH":16894,"BSTAR":0.00035630129,"MEAN_MOTION_DOT":8.456e-5,"MEAN_MOTION_DDOT":0}]
